GALAXY 25 (G-25)        
1 24812U 97026A   22256.19586578 -.00000017  00000+0  00000+0 0  9994
2 24812   3.9038  82.7598 0002385  89.8612 316.1805  1.00272421 92603
INTELSAT 5 (IS-5)       
1 24916U 97046A   22255.84652062 -.00000075  00000+0  00000+0 0  9998
2 24916   7.4102  60.4330 0004204 132.9117 269.3896  1.00272694 91855
GALAXY 11 (G-11)        
1 26038U 99071A   22256.18405994 -.00000176  00000+0  00000+0 0  9995
2 26038   3.2276  86.5870 0000506 195.2920  43.4455  1.00271369 83302
INTELSAT 9 (IS-9)       
1 26451U 00043A   22256.17688262 -.00000300  00000+0  00000+0 0  9994
2 26451   7.3973  60.6132 0002726 127.0132 178.2137  1.00273205 81075
INTELSAT 1R (IS-1R)     
1 26608U 00072A   22256.51286009 -.00000150  00000+0  00000+0 0  9994
2 26608   4.6678  79.8198 0000130 183.1712  71.2406  1.00272011 79891
INTELSAT 10 (IS-10)     
1 26766U 01019A   22255.78758883  .00000021  00000+0  00000+0 0  9999
2 26766   5.7813  72.6102 0002421 105.7606 274.7370  1.00272947 31854
INTELSAT 901 (IS-901)   
1 26824U 01024A   22256.17720488 -.00000217  00000+0  00000+0 0  9992
2 26824   0.0122 218.6633 0001261 337.0057 192.7595  1.00269991 77822
INTELSAT 902 (IS-902)   
1 26900U 01039A   22255.81392334 -.00000297  00000+0  00000+0 0  9996
2 26900   2.6193  88.0293 0002272  84.6351  62.0601  1.00272884 76921
INTELSAT 904 (IS-904)   
1 27380U 02007A   22256.03332428 -.00000227  00000+0  00000+0 0  9991
2 27380   3.4523  85.0009 0003059  97.2749 152.2323  1.00272186 75317
DIRECTV 5 (TEMPO 1)     
1 27426U 02023A   22256.23649834 -.00000070  00000+0  00000+0 0  9990
2 27426   1.3464  92.1573 0003480  91.3699 143.7061  1.00272891 74531
INTELSAT 905 (IS-905)   
1 27438U 02027A   22255.81906817 -.00000199  00000+0  00000+0 0  9999
2 27438   3.2736  85.7356 0002536  83.7375  92.6888  1.00272396 37595
GALAXY 3C (G-3C)        
1 27445U 02030A   22255.58981837 -.00000168  00000+0  00000+0 0  9996
2 27445   0.1941  87.4332 0000662 181.1029 200.5386  1.00270855 32728
INTELSAT 906 (IS-906)   
1 27513U 02041A   22255.85804301 -.00000001  00000+0  00000+0 0  9990
2 27513   2.2886  89.4811 0002869  88.1151 187.3031  1.00273506 73250
GALAXY 12 (G-12)        
1 27715U 03013B   22255.72646137  .00000043  00000+0  00000+0 0  9996
2 27715   3.4843  84.6466 0001893  98.0521 301.5267  1.00272997 38323
GALAXY 23 (G-23)        
1 27854U 03034A   22255.65635225 -.00000003  00000+0  00000+0 0  9998
2 27854   0.0344 246.4741 0002919 289.9449 290.5192  1.00272468 69961
GALAXY 13 (HORIZONS-1)  
1 27954U 03044A   22256.19737031  .00000033  00000+0  00000+0 0  9990
2 27954   0.0255 241.5977 0000619 107.6735 306.9592  1.00273247 69387
INTELSAT 10-02          
1 28358U 04022A   22256.18313480 -.00000025  00000+0  00000+0 0  9995
2 28358   0.0326 258.5857 0001134 306.8117 211.6978  1.00271900 66853
XM-3 (RHYTHM)           
1 28626U 05008A   22255.51997087 -.00000221  00000+0  00000+0 0  9993
2 28626   0.0187 147.3459 0001640  34.9866 271.2589  1.00268612 28844
DIRECTV 8               
1 28659U 05019A   22255.65661385 -.00000015  00000+0  00000+0 0  9996
2 28659   0.0189 235.4946 0002940 313.3547 280.1273  1.00272891 63309
GALAXY 28 (G-28)        
1 28702U 05022A   22255.80616251 -.00000200  00000+0  00000+0 0  9994
2 28702   0.0119 106.9837 0001912  69.1689  16.8477  1.00270951 38210
GALAXY 14 (G-14)        
1 28790U 05030A   22256.18923854  .00000142  00000+0  00000+0 0  9996
2 28790   1.4796  91.2859 0002016  77.2156 284.6780  1.00271068 62532
GALAXY 15 (G-15)        
1 28884U 05041A   22256.58678501  .00000061  00000+0  00000+0 0  9992
2 28884   0.0395  88.6493 0002136 107.7967 235.0526  1.00283373 61845
SPACEWAY 2              
1 28903U 05046B   22256.22070666  .00000090  00000+0  00000+0 0  9990
2 28903   2.1016  87.0981 0000449 341.5250 224.1170  1.00271784 61727
GALAXY 16 (G-16)        
1 29236U 06023A   22255.58894635 -.00000143  00000+0  00000+0 0  9994
2 29236   0.0420 264.0733 0002953 279.6451 280.8632  1.00271135 59191
DIRECTV 9S              
1 29494U 06043A   22255.66027627 -.00000129  00000+0  00000+0 0  9994
2 29494   0.0130 137.1851 0003068  37.3634 313.5832  1.00271916 37612
XM-4 (BLUES)            
1 29520U 06049A   22255.80694733 -.00000221  00000+0  00000+0 0  9997
2 29520   0.0650 318.8766 0001636   0.4173 237.9030  1.00271208 37703
GALAXY 17 (G-17)        
1 31307U 07016B   22255.59051597 -.00000190  00000+0  00000+0 0  9994
2 31307   0.0214  99.6826 0002716  76.3573 297.1203  1.00272337 56033
DIRECTV 10              
1 31862U 07032A   22255.58824875 -.00000119  00000+0  00000+0 0  9995
2 31862   0.0508 330.4277 0000328 251.3100 238.7915  1.00271028 31826
SPACEWAY 3              
1 32018U 07036A   22256.18320211 -.00000166  00000+0  00000+0 0  9997
2 32018   0.4475  90.4185 0000311  37.7029 195.0261  1.00271831 55362
INTELSAT 11 (IS-11)     
1 32253U 07044B   22255.81540575 -.00000284  00000+0  00000+0 0  9994
2 32253   0.0194 135.9896 0001707  49.8132  56.5578  1.00272740 54721
HORIZONS-2              
1 32388U 07063B   22256.26607172 -.00000276  00000+0  00000+0 0  9992
2 32388   0.0257 101.9584 0002407  18.8436 273.2899  0.99708764 54112
DIRECTV 11              
1 32729U 08013A   22256.18104083 -.00000140  00000+0  00000+0 0  9991
2 32729   0.0240  23.0669 0000254 186.5492 108.5109  1.00271955 53162
GALAXY 18 (G-18)        
1 32951U 08024A   22256.19961410  .00000011  00000+0  00000+0 0  9992
2 32951   0.0161 155.1630 0003443  27.5856 118.2749  1.00272506 52314
INTELSAT 25 (IS-25)     
1 33153U 08034A   22255.81767296 -.00000239  00000+0  00000+0 0  9995
2 33153   0.0120 153.2974 0003113  21.7195  79.6349  1.00273821 51923
GALAXY 19 (G-19)        
1 33376U 08045A   22255.58929516 -.00000155  00000+0  00000+0 0  9990
2 33376   0.0272 256.5652 0003189 283.3841 286.7630  1.00272040 51134
FM-5                    
1 35493U 09034A   22255.80668572 -.00000215  00000+0  00000+0 0  9995
2 35493   0.0191 172.1359 0000266 214.0266 169.9133  1.00270591 32877
INTELSAT 14 (IS-14)     
1 36097U 09064A   22255.81496975 -.00000289  00000+0  00000+0 0  9997
2 36097   0.0241 109.3223 0002501  74.9417  55.9330  1.00272066 46834
INTELSAT 15 (IS-15)     
1 36106U 09067A   22256.12784949 -.00000199  00000+0  00000+0 0  9997
2 36106   0.0153 142.3338 0002359  42.0224 298.9132  1.00269973 46836
DIRECTV 12              
1 36131U 09075A   22255.65992747 -.00000119  00000+0  00000+0 0  9990
2 36131   0.0440 323.8926 0000124 247.7484 274.8476  1.00272703 32791
INTELSAT 16 (IS-16)     
1 36397U 10006A   22255.40484498 -.00000261  00000+0  00000+0 0  9990
2 36397   0.0170 155.7766 0002232  28.4868 236.6690  1.00268975 45874
XM-5                    
1 37185U 10053A   22255.65748587 -.00000038  00000+0  00000+0 0  9999
2 37185   0.0205 178.6783 0000712 197.6228  96.8335  1.00269206 43713
INTELSAT 17 (IS-17)     
1 37238U 10065B   22256.12409987 -.00000016  00000+0  00000+0 0  9998
2 37238   0.0273 214.8096 0002636 323.7989 284.1584  1.00270235 43150
INTELSAT NEW DAWN       
1 37392U 11016A   22255.83049141  .00000140  00000+0  00000+0 0  9992
2 37392   0.0214 137.9061 0000792  41.8791 143.7905  1.00274559 39518
INTELSAT 18 (IS-18)     
1 37834U 11056A   22256.21853786  .00000038  00000+0  00000+0 0  9994
2 37834   0.0243  22.1696 0002162 139.1820  89.5098  1.00270923 40071
INTELSAT 22 (IS-22)     
1 38098U 12011A   22256.05355478 -.00000073  00000+0  00000+0 0  9996
2 38098   0.0126 141.8336 0002645  33.7917 267.7892  1.00271697 38287
INTELSAT 19 (IS-19)     
1 38356U 12030A   22255.85700035 -.00000072  00000+0  00000+0 0  9993
2 38356   0.0173 179.9766 0003179   0.4163 285.9606  1.00270220 37748
INTELSAT 20 (IS-20)     
1 38740U 12043A   22256.12453588 -.00000039  00000+0  00000+0 0  9996
2 38740   0.0147 162.2200 0001706  15.7937 287.4231  1.00271214 37066
INTELSAT 21 (IS-21)     
1 38749U 12045A   22256.02765626 -.00000300  00000+0  00000+0 0  9996
2 38749   0.0158 119.8615 0002363  48.9917 135.1043  1.00270947 36860
INTELSAT 23 (IS-23)     
1 38867U 12057A   22256.23851400 -.00000299  00000+0  00000+0 0  9996
2 38867   0.0511 270.0537 0000747 247.1273 227.8936  1.00264295 36341
FM-6                    
1 39360U 13058A   22256.23274069 -.00000031  00000+0  00000+0 0  9991
2 39360   0.0521 272.6496 0000442 147.7255 259.4615  1.00270547 32584
INTELSAT 30 (IS-30)     
1 40271U 14062A   22255.94838633 -.00000168  00000+0  00000+0 0  9991
2 40271   0.0023 129.2452 0002330 121.8148 347.2342  1.00283797 28999
DIRECTV 14              
1 40333U 14078B   22254.94319931 -.00000144  00000+0  00000+0 0  9995
2 40333   0.0163 110.7775 0000220 148.0335 332.4594  1.00274486 28283
DIRECTV 15              
1 40663U 15026A   22256.33588419 -.00000117  00000+0  00000+0 0  9999
2 40663   0.0144 121.8606 0000281 262.5705 345.9419  1.00272604 26771
SKY MEXICO-1            
1 40664U 15026B   22256.37885966 -.00000248  00000+0  00000+0 0  9996
2 40664   0.0430 318.9191 0002385 237.4804 213.5752  1.00270275 26778
INTELSAT 34 (IS-34)     
1 40874U 15039A   22254.95191934 -.00000303  00000+0  00000+0 0  9992
2 40874   0.0470 309.3609 0000450 145.4473 183.3376  1.00271189 25842
INTELSAT 31 (IS-31)     
1 41581U 16035A   22253.32657751 -.00000171  00000+0  00000+0 0  9992
2 41581   0.0178 216.0810 0001154   9.1938 146.5673  1.00266120 22897
INTELSAT 36 (IS-36)     
1 41747U 16053A   22254.76143348 -.00000044  00000+0  00000+0 0  9996
2 41747   0.0154 155.1512 0002339 208.4548 329.7649  1.00273169 22163
INTELSAT 33E (IS-33E)   
1 41748U 16053B   22255.85725924  .00000034  00000+0  00000+0 0  9992
2 41748   0.0177 150.5514 0001517  65.1519 144.7140  1.00271044 22478
INTELSAT 32E (IS-32E)   
1 41945U 17007B   22254.28805271 -.00000288  00000+0  00000+0 0  9993
2 41945   0.0039 190.4195 0000499 289.5686 290.8205  1.00273939 20442
INTELSAT 35E (IS-35E)   
1 42818U 17041A   22255.81697536 -.00000253  00000+0  00000+0 0  9996
2 42818   0.0131 161.9105 0001750  15.6046  73.8823  1.00272144 19044
INTELSAT 37E (IS-37E)   
1 42950U 17059A   22254.81593373 -.00000159  00000+0  00000+0 0  9990
2 42950   0.0147 137.2610 0002793  40.1143  89.1641  1.00272338 18282
AZERSPACE 2 (IS-38)     
1 43632U 18074A   22254.82849058  .00000118  00000+0  00000+0 0  9995
2 43632   0.0193 143.5605 0001554  32.0955 158.5153  1.00271261 14661
HORIZONS-3E             
1 43633U 18074B   22255.44583411 -.00000047  00000+0  00000+0 0  9995
2 43633   0.0337   7.0695 0001142 282.0306  31.8028  1.00272009 14569
AT&T T-16               
1 44333U 19034A   22256.59306345 -.00000128  00000+0  00000+0 0  9996
2 44333   0.0180 138.0018 0000308 146.6715 180.5087  1.00272720 11866
INTELSAT 39 (IS-39)     
1 44476U 19049B   22254.76012549  .00000015  00000+0  00000+0 0  9991
2 44476   0.0226 176.8090 0000619 166.2236 343.2938  1.00269129 11352
GALAXY 30 (G-30)        
1 46114U 20056C   22256.26119889  .00000023  00000+0  00000+0 0  9993
2 46114   0.0190 150.7629 0002047  26.8629 143.6323  1.00271114  7639
